ONEWEB-0196             
1 48218U 21031J   25260.79149395 -.00000199  00000+0 -57048-3 0  9999
2 48218  87.9083 343.9490 0001917 104.5676 255.5667 13.14503623212446
ONEWEB-0183             
1 48219U 21031K   25260.76612551  .00000186  00000+0  46784-3 0  9995
2 48219  87.9079 343.9632 0002071  97.5674 262.5691 13.14503191212536
ONEWEB-0185             
1 48220U 21031L   25260.79227774 -.00000183  00000+0 -52794-3 0  9996
2 48220  87.9081 343.9251 0002315 102.8161 257.3227 13.14501470212467
ONEWEB-0187             
1 48221U 21031M   25261.15293950  .00000225  00000+0  57167-3 0  9991
2 48221  87.9087 343.8997 0002091 106.2514 253.8846 13.14503672212522
ONEWEB-0192             
1 48222U 21031N   25261.19903687 -.00000022  00000+0 -94469-4 0  9995
2 48222  87.9081 343.8834 0001819 102.7158 257.4175 13.14504118212441
ONEWEB-0219             
1 48223U 21031P   25261.02619369 -.00000200  00000+0 -57421-3 0  9993
2 48223  87.9082 343.8903 0002140 103.7779 256.3589 13.14503459212622
ONEWEB-0202             
1 48224U 21031Q   25261.23551686  .00000129  00000+0  31438-3 0  9992
2 48224  87.9082 343.8632 0001777 124.9335 235.1962 13.14503381212635
ONEWEB-0204             
1 48225U 21031R   25260.73677748 -.00000110  00000+0 -33033-3 0  9990
2 48225  87.9073 343.9520 0002118  95.5935 264.5436 13.14504483212469
